1998-067XK              
1 65731U 98067XK  26031.95444128  .00181172  00000+0  91194-3 0  9997
2 65731  51.6232 240.0713 0003812 195.4345 164.6541 15.80596168 21048
RSP-03                  
1 65732U 98067XL  26031.96547268  .00398333  72061-4  11523-2 0  9995
2 65732  51.6172 237.0865 0005388 221.5791 138.4806 15.92427913 21094
YOTSUBA-KULOVER         
1 65941U 98067XN  26031.88311480  .00099148  00000+0  83995-3 0  9997
2 65941  51.6248 246.3754 0004341 198.7891 161.2946 15.68886600 17701
BOTAN                   
1 65942U 98067XP  26031.81777673  .00214162  00000+0  11205-2 0  9990
2 65942  51.6186 243.6587 0005413 214.9689 145.0958 15.79643607 17730
E-KAGAKU-1              
1 65943U 98067XQ  26031.88347863  .00098228  00000+0  83487-3 0  9997
2 65943  51.6263 246.3872 0003284 210.1365 149.9444 15.68815577 17702
HRC MONOBLOCK CAMERA    
1 66052U 98067XR  26031.80745932  .00036453  00000+0  47390-3 0  9995
2 66052  51.6280 251.1287 0000315  20.3488 339.7517 15.58422936 16639
HTV-X1                  
1 66174U 25241A   26031.85512537  .00006574  00000+0  13028-3 0  9994
2 66174  51.6318 254.4422 0011107  50.9406 309.2569 15.48310634   512
SZ-21 MODULE            
1 66515U 25246C   26031.79273807  .00029338  00000+0  28368-3 0  9991
2 66515  41.4759  70.0056 0003354 262.5729  97.4731 15.65768813 12285
SHENZHOU-22             
1 66645U 25272A   26031.38642198  .00028253  00000+0  32371-3 0  9996
2 66645  41.4674  74.8264 0008909  46.9753 313.1831 15.61427822267649
SOYUZ-MS 28             
1 66664U 25275A   26031.85512537  .00006574  00000+0  13028-3 0  9995
2 66664  51.6318 254.4422 0011107  50.9406 309.2569 15.48310634  1281
DUPLEX                  
1 66906U 98067XS  26031.88818432  .00026228  00000+0  40952-3 0  9993
2 66906  51.6293 253.1664 0001575  81.4711 278.6458 15.53624870  9406
1998-067XT              
1 66907U 98067XT  26031.84642542  .00078348  00000+0  95077-3 0  9995
2 66907  51.6268 252.1368 0002789 161.7115 198.3979 15.59907385  9415
